OBJECT_NAME,OBJECT_ID,EPOCH,MEAN_MOTION,ECCENTRICITY,INCLINATION,RA_OF_ASC_NODE,ARG_OF_PERICENTER,MEAN_ANOMALY,EPHEMERIS_TYPE,CLASSIFICATION_TYPE,NORAD_CAT_ID,ELEMENT_SET_NO,REV_AT_EPOCH,BSTAR,MEAN_MOTION_DOT,MEAN_MOTION_DDOT
ONEWEB-0410,2022-012A,2026-07-18T19:21:40.265856,13.17648715,.000155,87.9162,359.5699,49.2749,310.8517,0,U,51622,999,21786,-.16722E-3,-.52E-6,0
ONEWEB-0411,2022-012B,2026-07-18T18:40:23.423232,13.10372403,.0002342,87.8821,29.9728,95.1016,265.0379,0,U,51623,999,21342,-.15063E-2,-.513E-5,0
ONEWEB-0415,2022-012C,2026-07-18T02:05:54.381408,13.10370291,.00021344,87.8818,30.1079,87.0884,273.0487,0,U,51624,999,21333,-.12139737E-2,-.411E-5,0
ONEWEB-0416,2022-012D,2026-07-18T18:52:36.251616,13.10374822,.0002155,87.8812,29.9851,83.6095,276.5277,0,U,51625,999,21346,-.17725E-2,-.606E-5,0
ONEWEB-0422,2022-012E,2026-07-17T23:33:25.424928,13.17648504,.00019863,87.9159,359.7341,113.6290,246.5050,0,U,51626,999,21786,.19633552E-3,.89E-6,0
ONEWEB-0423,2022-012F,2026-07-18T19:26:32.512992,13.17648023,.0001773,87.9150,359.5732,92.8095,267.3239,0,U,51627,999,21786,.33964E-4,.26E-6,0
ONEWEB-0425,2022-012G,2026-07-18T11:47:22.913088,13.10400242,.00021665,87.8819,30.0279,75.7043,284.4325,0,U,51628,999,21342,-.64380206E-2,-.2235E-4,0
ONEWEB-0428,2022-012H,2026-07-18T18:37:56.396352,13.10372598,.0001807,87.8811,29.9780,88.8288,271.3047,0,U,51629,999,21342,-.1177E-2,-.398E-5,0
ONEWEB-0431,2022-012J,2026-07-18T12:23:54.792096,13.10373647,.00024207,87.8819,30.0224,94.9511,265.1892,0,U,51630,999,21344,.17342667E-2,.618E-5,0
ONEWEB-0434,2022-012K,2026-07-18T11:52:33.084768,13.10377297,.00014666,87.8824,30.0535,69.3472,290.7813,0,U,51631,999,21342,-.76584636E-3,-.255E-5,0
ONEWEB-0435,2022-012L,2026-07-18T19:21:55.842048,13.10379540,.000194,87.8819,29.9746,97.9395,262.1953,0,U,51632,999,21345,.16247E-3,.69E-6,0
ONEWEB-0436,2022-012M,2026-07-18T17:25:02.417088,13.17647841,.0001962,87.9157,359.5737,99.2250,260.9104,0,U,51633,999,21783,.15596E-3,.73E-6,0
ONEWEB-0438,2022-012N,2026-07-18T18:59:55.090176,13.10373439,.0001788,87.8815,29.9818,81.2923,278.8407,0,U,51634,999,21348,-.17223E-2,-.589E-5,0
ONEWEB-0439,2022-012P,2026-07-18T11:45:00.046368,13.10376769,.00017448,87.8819,30.0296,86.8944,273.2383,0,U,51635,999,21342,-.13984744E-2,-.476E-5,0
ONEWEB-0442,2022-012Q,2026-07-18T09:56:43.044576,13.17650818,.00016315,87.9148,359.6659,75.1175,285.0137,0,U,51636,999,21778,.45433652E-4,.31E-6,0
ONEWEB-0443,2022-012R,2026-07-18T19:31:23.863296,13.17646368,.0001562,87.9148,359.5878,98.8654,261.2655,0,U,51637,999,21788,-.31048E-3,-.108E-5,0
ONEWEB-0444,2022-012S,2026-07-18T18:50:08.966400,13.10371857,.0001658,87.8819,29.9694,91.7504,268.3813,0,U,51638,999,21347,-.18075E-2,-.618E-5,0
ONEWEB-0445,2022-012T,2026-07-18T19:19:28.306272,13.10377815,.0001924,87.8826,29.9557,85.3854,274.7493,0,U,51639,999,21348,-.10351E-2,-.349E-5,0
ONEWEB-0446,2022-012U,2026-07-18T05:58:01.113600,13.10371516,.00020998,87.8815,30.0933,82.1971,277.9395,0,U,51640,999,21339,-.18024475E-2,-.616E-5,0
ONEWEB-0448,2022-012V,2026-07-18T11:35:12.840000,13.10373052,.00017948,87.8813,30.0419,88.5500,271.5833,0,U,51641,999,21339,-.22873675E-2,-.786E-5,0
ONEWEB-0449,2022-012W,2026-07-18T19:02:21.884640,13.10374171,.0001777,87.8821,29.9675,68.9539,291.1779,0,U,51642,999,21344,-.19225E-2,-.658E-5,0
ONEWEB-0451,2022-012X,2026-07-18T10:02:46.557024,13.17648587,.00016779,87.9159,359.6332,89.6445,270.4879,0,U,51643,999,21777,-.59935448E-3,-.22E-5,0
ONEWEB-0452,2022-012Y,2026-07-18T10:00:21.501792,13.17647675,.00015671,87.9147,359.6674,93.3521,266.7790,0,U,51644,999,21778,.10212889E-3,.53E-6,0
ONEWEB-0456,2022-012AA,2026-07-18T06:24:53.843904,13.10375074,.00018287,87.8832,30.0618,92.7700,267.3637,0,U,51646,999,21341,-.61077089E-3,-.201E-5,0
ONEWEB-0457,2022-012AB,2026-07-18T05:52:56.447328,13.10371587,.0002056,87.8815,30.0813,78.7458,281.3901,0,U,51647,999,21341,-.15397706E-2,-.525E-5,0
ONEWEB-0458,2022-012AC,2026-07-18T11:53:33.338400,13.10376267,.00016171,87.8823,30.0201,87.6286,272.5027,0,U,51648,999,21340,-.67184346E-3,-.222E-5,0
ONEWEB-0461,2022-012AD,2026-07-18T19:38:41.168256,13.17648612,.0001911,87.9161,359.5671,89.8278,270.3073,0,U,51649,999,21805,-.41628E-3,-.149E-5,0
ONEWEB-0463,2022-012AE,2026-07-18T17:22:36.293088,13.17649062,.0001987,87.9150,359.6055,89.9281,270.2078,0,U,51650,999,21782,-.39339E-3,-.14E-5,0
ONEWEB-0464,2022-012AF,2026-07-18T00:50:10.158720,13.10375658,.00016163,87.8816,30.1328,95.2991,264.8321,0,U,51651,999,21336,-.72165001E-3,-.239E-5,0
ONEWEB-0468,2022-012AG,2026-07-18T19:17:01.675104,13.10375495,.0001728,87.8816,29.9727,95.5482,264.5842,0,U,51652,999,21344,-.53506E-3,-.174E-5,0
